[{"OBJECT_NAME":"STARLINK-34890","OBJECT_ID":"2025-216AC","EPOCH":"2026-03-09T23:25:16.027680","MEAN_MOTION":15.30175348,"ECCENTRICITY":0.00016015,"INCLINATION":53.1604,"RA_OF_ASC_NODE":331.119,"ARG_OF_PERICENTER":92.1194,"MEAN_ANOMALY":267.999,"EPHEMERIS_TYPE":0,"CLASSIFICATION_TYPE":"U","NORAD_CAT_ID":65760,"ELEMENT_SET_NO":999,"REV_AT_EPOCH":2658,"BSTAR":0.0011263314,"MEAN_MOTION_DOT":0.00033123,"MEAN_MOTION_DDOT":0},{"OBJECT_NAME":"COSMOS 2251 DEB","OBJECT_ID":"1993-036N","EPOCH":"2026-03-09T20:39:34.848000","MEAN_MOTION":15.17003756,"ECCENTRICITY":0.00564486,"INCLINATION":74.0035,"RA_OF_ASC_NODE":352.1163,"ARG_OF_PERICENTER":60.1769,"MEAN_ANOMALY":300.5022,"EPHEMERIS_TYPE":0,"CLASSIFICATION_TYPE":"U","NORAD_CAT_ID":33765,"ELEMENT_SET_NO":999,"REV_AT_EPOCH":90936,"BSTAR":0.0026022202,"MEAN_MOTION_DOT":0.00053945,"MEAN_MOTION_DDOT":0}]
